[ {"CCSDS_OMM_VERS": "2.0", "COMMENT": "GENERATED VIA SPACE-TRACK.ORG API", "CREATION_DATE": "2021-12-06T06:46:12", "ORIGINATOR": "18 SPCS", "OBJECT_NAME": "MAQSAT/ARIANE 5", "OBJECT_ID": "2005-005D", "CENTER_NAME": "EARTH", "REF_FRAME": "TEME", "TIME_SYSTEM": "UTC", "MEAN_ELEMENT_THEORY": "SGP4", "EPOCH": "2021-12-05T22:10:34.189248", "MEAN_MOTION": "2.50135499", "ECCENTRICITY": "0.70934800", "INCLINATION": "6.9349", "RA_OF_ASC_NODE": "113.6523", "ARG_OF_PERICENTER": "63.8605", "MEAN_ANOMALY": "350.7169", "EPHEMERIS_TYPE": "0", "CLASSIFICATION_TYPE": "U", "NORAD_CAT_ID": "28545", "ELEMENT_SET_NO": "999", "REV_AT_EPOCH": "14594", "BSTAR": "0.00016179000000", "MEAN_MOTION_DOT": "0.00000284", "MEAN_MOTION_DDOT": "0.0000000000000", "SEMIMAJOR_AXIS": "22923.713", "PERIOD": "575.688", "APOAPSIS": "32806.467", "PERIAPSIS": "284.688", "OBJECT_TYPE": "PAYLOAD", "RCS_SIZE": "LARGE", "COUNTRY_CODE": "FR", "LAUNCH_DATE": "2005-02-12", "SITE": "FRGUI", "DECAY_DATE": null, "FILE": "3233623", "GP_ID": "191174994", "TLE_LINE0": "0 MAQSAT/ARIANE 5", "TLE_LINE1": "1 28545U 05005D   21339.92400682  .00000284  00000-0  16179-3 0  9994", "TLE_LINE2": "2 28545   6.9349 113.6523 7093480  63.8605 350.7169  2.50135499145949"}, {"CCSDS_OMM_VERS": "2.0", "COMMENT": "GENERATED VIA SPACE-TRACK.ORG API", "CREATION_DATE": "2021-12-06T02:57:56", "ORIGINATOR": "18 SPCS", "OBJECT_NAME": "ARIANE 5 R/B", "OBJECT_ID": "2005-028B", "CENTER_NAME": "EARTH", "REF_FRAME": "TEME", "TIME_SYSTEM": "UTC", "MEAN_ELEMENT_THEORY": "SGP4", "EPOCH": "2021-12-05T06:33:33.418080", "MEAN_MOTION": "2.26572369", "ECCENTRICITY": "0.71687520", "INCLINATION": "6.7983", "RA_OF_ASC_NODE": "130.5752", "ARG_OF_PERICENTER": "350.6557", "MEAN_ANOMALY": "0.9049", "EPHEMERIS_TYPE": "0", "CLASSIFICATION_TYPE": "U", "NORAD_CAT_ID": "28787", "ELEMENT_SET_NO": "999", "REV_AT_EPOCH": "13510", "BSTAR": "-0.00019111000000", "MEAN_MOTION_DOT": "-0.00000102", "MEAN_MOTION_DDOT": "0.0000000000000", "SEMIMAJOR_AXIS": "24486.716", "PERIOD": "635.559", "APOAPSIS": "35662.500", "PERIAPSIS": "554.662", "OBJECT_TYPE": "ROCKET BODY", "RCS_SIZE": "LARGE", "COUNTRY_CODE": "FR", "LAUNCH_DATE": "2005-08-11", "SITE": "FRGUI", "DECAY_DATE": null, "FILE": "3233515", "GP_ID": "191156823", "TLE_LINE0": "0 ARIANE 5 R/B", "TLE_LINE1": "1 28787U 05028B   21339.27330345 -.00000102  00000-0 -19111-3 0  9993", "TLE_LINE2": "2 28787   6.7983 130.5752 7168752 350.6557   0.9049  2.26572369135101"}, {"CCSDS_OMM_VERS": "2.0", "COMMENT": "GENERATED VIA SPACE-TRACK.ORG API", "CREATION_DATE": "2021-12-05T20:11:25", "ORIGINATOR": "18 SPCS", "OBJECT_NAME": "ARIANE 5 R/B", "OBJECT_ID": "2005-046C", "CENTER_NAME": "EARTH", "REF_FRAME": "TEME", "TIME_SYSTEM": "UTC", "MEAN_ELEMENT_THEORY": "SGP4", "EPOCH": "2021-12-05T06:38:34.262880", "MEAN_MOTION": "2.29192278", "ECCENTRICITY": "0.71857130", "INCLINATION": "7.4167", "RA_OF_ASC_NODE": "48.0863", "ARG_OF_PERICENTER": "109.5878", "MEAN_ANOMALY": "335.5302", "EPHEMERIS_TYPE": "0", "CLASSIFICATION_TYPE": "U", "NORAD_CAT_ID": "28904", "ELEMENT_SET_NO": "999", "REV_AT_EPOCH": "13425", "BSTAR": "-0.00020539000000", "MEAN_MOTION_DOT": "-0.00000107", "MEAN_MOTION_DDOT": "0.0000000000000", "SEMIMAJOR_AXIS": "24299.753", "PERIOD": "628.293", "APOAPSIS": "35382.723", "PERIAPSIS": "460.513", "OBJECT_TYPE": "ROCKET BODY", "RCS_SIZE": "LARGE", "COUNTRY_CODE": "FR", "LAUNCH_DATE": "2005-11-16", "SITE": "FRGUI", "DECAY_DATE": null, "FILE": "3233179", "GP_ID": "191125445", "TLE_LINE0": "0 ARIANE 5 R/B", "TLE_LINE1": "1 28904U 05046C   21339.27678545 -.00000107  00000-0 -20539-3 0  9992", "TLE_LINE2": "2 28904   7.4167  48.0863 7185713 109.5878 335.5302  2.29192278134257"}, {"CCSDS_OMM_VERS": "2.0", "COMMENT": "GENERATED VIA SPACE-TRACK.ORG API", "CREATION_DATE": "2021-12-06T06:26:11", "ORIGINATOR": "18 SPCS", "OBJECT_NAME": "ALOS", "OBJECT_ID": "2006-002A", "CENTER_NAME": "EARTH", "REF_FRAME": "TEME", "TIME_SYSTEM": "UTC", "MEAN_ELEMENT_THEORY": "SGP4", "EPOCH": "2021-12-06T04:06:00.194976", "MEAN_MOTION": "14.62933681", "ECCENTRICITY": "0.00010520", "INCLINATION": "97.9102", "RA_OF_ASC_NODE": "307.5991", "ARG_OF_PERICENTER": "115.5565", "MEAN_ANOMALY": "244.5742", "EPHEMERIS_TYPE": "0", "CLASSIFICATION_TYPE": "U", "NORAD_CAT_ID": "28931", "ELEMENT_SET_NO": "999", "REV_AT_EPOCH": "84616", "BSTAR": "0.00006973000000", "MEAN_MOTION_DOT": "0.00000312", "MEAN_MOTION_DDOT": "0.0000000000000", "SEMIMAJOR_AXIS": "7061.854", "PERIOD": "98.432", "APOAPSIS": "684.462", "PERIAPSIS": "682.976", "OBJECT_TYPE": "PAYLOAD", "RCS_SIZE": "LARGE", "COUNTRY_CODE": "JPN", "LAUNCH_DATE": "2006-01-24", "SITE": "TNSTA", "DECAY_DATE": null, "FILE": "3233540", "GP_ID": "191173497", "TLE_LINE0": "0 ALOS", "TLE_LINE1": "1 28931U 06002A   21340.17083559  .00000312  00000-0  69730-4 0  9994", "TLE_LINE2": "2 28931  97.9102 307.5991 0001052 115.5565 244.5742 14.62933681846169"}, {"CCSDS_OMM_VERS": "2.0", "COMMENT": "GENERATED VIA SPACE-TRACK.ORG API", "CREATION_DATE": "2021-12-06T02:57:56", "ORIGINATOR": "18 SPCS", "OBJECT_NAME": "ARIANE 5 DEB (SYLDA)", "OBJECT_ID": "2006-020C", "CENTER_NAME": "EARTH", "REF_FRAME": "TEME", "TIME_SYSTEM": "UTC", "MEAN_ELEMENT_THEORY": "SGP4", "EPOCH": "2021-12-05T19:03:05.006880", "MEAN_MOTION": "6.41646749", "ECCENTRICITY": "0.45685510", "INCLINATION": "6.8112", "RA_OF_ASC_NODE": "133.3830", "ARG_OF_PERICENTER": "197.0628", "MEAN_ANOMALY": "140.2838", "EPHEMERIS_TYPE": "0", "CLASSIFICATION_TYPE": "U", "NORAD_CAT_ID": "29164", "ELEMENT_SET_NO": "999", "REV_AT_EPOCH": "26572", "BSTAR": "0.00378450000000", "MEAN_MOTION_DOT": "0.00054243", "MEAN_MOTION_DDOT": "0.0000000000000", "SEMIMAJOR_AXIS": "12233.137", "PERIOD": "224.423", "APOAPSIS": "11443.773", "PERIAPSIS": "266.231", "OBJECT_TYPE": "DEBRIS", "RCS_SIZE": "LARGE", "COUNTRY_CODE": "FR", "LAUNCH_DATE": "2006-05-27", "SITE": "FRGUI", "DECAY_DATE": null, "FILE": "3233515", "GP_ID": "191157101", "TLE_LINE0": "0 ARIANE 5 DEB (SYLDA)", "TLE_LINE1": "1 29164U 06020C   21339.79380795  .00054243  00000-0  37845-2 0  9993", "TLE_LINE2": "2 29164   6.8112 133.3830 4568551 197.0628 140.2838  6.41646749265725"}, {"CCSDS_OMM_VERS": "2.0", "COMMENT": "GENERATED VIA SPACE-TRACK.ORG API", "CREATION_DATE": "2021-12-06T07:06:20", "ORIGINATOR": "18 SPCS", "OBJECT_NAME": "ARIANE 5 R/B", "OBJECT_ID": "2006-020D", "CENTER_NAME": "EARTH", "REF_FRAME": "TEME", "TIME_SYSTEM": "UTC", "MEAN_ELEMENT_THEORY": "SGP4", "EPOCH": "2021-12-06T01:48:01.957824", "MEAN_MOTION": "4.54287821", "ECCENTRICITY": "0.56747690", "INCLINATION": "6.8801", "RA_OF_ASC_NODE": "277.6253", "ARG_OF_PERICENTER": "306.0990", "MEAN_ANOMALY": "13.7640", "EPHEMERIS_TYPE": "0", "CLASSIFICATION_TYPE": "U", "NORAD_CAT_ID": "29165", "ELEMENT_SET_NO": "999", "REV_AT_EPOCH": "16975", "BSTAR": "0.00052761000000", "MEAN_MOTION_DOT": "0.00003265", "MEAN_MOTION_DDOT": "0.0000000000000", "SEMIMAJOR_AXIS": "15399.777", "PERIOD": "316.980", "APOAPSIS": "17760.660", "PERIAPSIS": "282.624", "OBJECT_TYPE": "ROCKET BODY", "RCS_SIZE": "LARGE", "COUNTRY_CODE": "FR", "LAUNCH_DATE": "2006-05-27", "SITE": "FRGUI", "DECAY_DATE": null, "FILE": "3233719", "GP_ID": "191177272", "TLE_LINE0": "0 ARIANE 5 R/B", "TLE_LINE1": "1 29165U 06020D   21340.07502266  .00003265  00000-0  52761-3 0  9999", "TLE_LINE2": "2 29165   6.8801 277.6253 5674769 306.0990  13.7640  4.54287821169751"}, {"CCSDS_OMM_VERS": "2.0", "COMMENT": "GENERATED VIA SPACE-TRACK.ORG API", "CREATION_DATE": "2021-12-06T02:57:56", "ORIGINATOR": "18 SPCS", "OBJECT_NAME": "ARIANE 5 R/B", "OBJECT_ID": "2006-033D", "CENTER_NAME": "EARTH", "REF_FRAME": "TEME", "TIME_SYSTEM": "UTC", "MEAN_ELEMENT_THEORY": "SGP4", "EPOCH": "2021-12-05T14:16:03.542016", "MEAN_MOTION": "2.51213410", "ECCENTRICITY": "0.70794860", "INCLINATION": "5.9031", "RA_OF_ASC_NODE": "172.5336", "ARG_OF_PERICENTER": "14.4265", "MEAN_ANOMALY": "358.3598", "EPHEMERIS_TYPE": "0", "CLASSIFICATION_TYPE": "U", "NORAD_CAT_ID": "29275", "ELEMENT_SET_NO": "999", "REV_AT_EPOCH": "13451", "BSTAR": "0.00027775000000", "MEAN_MOTION_DOT": "0.00000506", "MEAN_MOTION_DDOT": "0.0000000000000", "SEMIMAJOR_AXIS": "22858.091", "PERIOD": "573.218", "APOAPSIS": "32662.310", "PERIAPSIS": "297.603", "OBJECT_TYPE": "ROCKET BODY", "RCS_SIZE": "LARGE", "COUNTRY_CODE": "FR", "LAUNCH_DATE": "2006-08-11", "SITE": "FRGUI", "DECAY_DATE": null, "FILE": "3233515", "GP_ID": "191158111", "TLE_LINE0": "0 ARIANE 5 R/B", "TLE_LINE1": "1 29275U 06033D   21339.59448544  .00000506  00000-0  27775-3 0  9990", "TLE_LINE2": "2 29275   5.9031 172.5336 7079486  14.4265 358.3598  2.51213410134519"}, {"CCSDS_OMM_VERS": "2.0", "COMMENT": "GENERATED VIA SPACE-TRACK.ORG API", "CREATION_DATE": "2021-12-06T06:46:12", "ORIGINATOR": "18 SPCS", "OBJECT_NAME": "H-2A R/B", "OBJECT_ID": "2006-059B", "CENTER_NAME": "EARTH", "REF_FRAME": "TEME", "TIME_SYSTEM": "UTC", "MEAN_ELEMENT_THEORY": "SGP4", "EPOCH": "2021-12-06T01:35:48.700896", "MEAN_MOTION": "5.33335612", "ECCENTRICITY": "0.52175430", "INCLINATION": "28.6231", "RA_OF_ASC_NODE": "287.4993", "ARG_OF_PERICENTER": "242.2382", "MEAN_ANOMALY": "56.0569", "EPHEMERIS_TYPE": "0", "CLASSIFICATION_TYPE": "U", "NORAD_CAT_ID": "29657", "ELEMENT_SET_NO": "999", "REV_AT_EPOCH": "22216", "BSTAR": "0.00044512000000", "MEAN_MOTION_DOT": "0.00007995", "MEAN_MOTION_DDOT": "0.0000000000000", "SEMIMAJOR_AXIS": "13837.834", "PERIOD": "269.999", "APOAPSIS": "14679.649", "PERIAPSIS": "239.750", "OBJECT_TYPE": "ROCKET BODY", "RCS_SIZE": "LARGE", "COUNTRY_CODE": "JPN", "LAUNCH_DATE": "2006-12-18", "SITE": "TNSTA", "DECAY_DATE": null, "FILE": "3233627", "GP_ID": "191175055", "TLE_LINE0": "0 H-2A R/B", "TLE_LINE1": "1 29657U 06059B   21340.06653589  .00007995  00000-0  44512-3 0  9990", "TLE_LINE2": "2 29657  28.6231 287.4993 5217543 242.2382  56.0569  5.33335612222160"}]